ORBCOMM FM24            
1 25478U 98053D   25290.69915867  .00001859  00000+0  64997-3 0  9990
2 25478  45.0088  48.0853 0002919 156.3811 203.7172 14.38430087415085
ORBCOMM FM25            
1 25479U 98053E   25289.63120316  .00001861  00000+0  65077-3 0  9993
2 25479  45.0079  51.4406 0005256 148.2362 211.8804 14.38393505415227
ORBCOMM FM26            
1 25480U 98053F   25290.62738292  .00001643  00000+0  59139-3 0  9994
2 25480  45.0077  44.0729 0007340 165.6235 194.4823 14.37409882415267
ORBCOMM FM27            
1 25481U 98053G   25290.58850768  .00002023  00000+0  70304-3 0  9993
2 25481  45.0064  47.0552 0001977 183.0566 177.0271 14.38435082415291
ORBCOMM FM28            
1 25482U 98053H   25290.95860726  .00001537  00000+0  54341-3 0  9992
2 25482  45.0065 342.6388 0006127 212.5479 147.4992 14.38586227416039
ORBCOMM FM30            
1 25980U 99065A   25290.53379644  .00001618  00000+0  58135-3 0  9992
2 25980  45.0311 230.5026 0007637 274.3935  85.6041 14.37577415352057
ORBCOMM FM31            
1 25981U 99065B   25290.79060306  .00001537  00000+0  55537-3 0  9996
2 25981  45.0223 222.7489 0005468 300.4110  59.6197 14.37507582351647
ORBCOMM FM32            
1 25982U 99065C   25290.57051651  .00001507  00000+0  55585-3 0  9996
2 25982  45.0153 241.1898 0007999 290.5672  69.4317 14.36560731352190
